start=new Date('2022-11-27T00:00:00.000Z').valueOf();
sats=[{"RCS_SIZE":"LARGE","RA_OF_ASC_NODE":"309.3617","EPHEMERIS_TYPE":"0","BSTAR":"0.00005325100000","INCLINATION":"53.0553","OBJECT_ID":"2020-074V","CENTER_NAME":"EARTH","OBJECT_TYPE":"PAYLOAD","SEMIMAJOR_AXIS":"6925.348","TIME_SYSTEM":"UTC","MEAN_MOTION":"15.06400192","DECAY_DATE":null,"SITE":"AFETR","NORAD_CAT_ID":"46758","COUNTRY_CODE":"US","GP_ID":"218889487","CLASSIFICATION_TYPE":"U","LAUNCH_DATE":"2020-10-24","FILE":"3671048","MEAN_ELEMENT_THEORY":"SGP4","APOAPSIS":"548.743","PERIOD":"95.592","MEAN_ANOMALY":"313.9744","REV_AT_EPOCH":"11588","OBJECT_NAME":"STARLINK-1928","ARG_OF_PERICENTER":"46.1427","MEAN_MOTION_DOT":"0.00000511","MEAN_MOTION_DDOT":"0.0000000000000","PERIAPSIS":"545.682","REF_FRAME":"TEME","ELEMENT_SET_NO":"999","ECCENTRICITY":"0.00022100","TLE_LINE2":"2 46758  53.0553 309.3617 0002210  46.1427 313.9744 15.06400192115883","EPOCH":"2022-11-26T15:18:05.212512","TLE_LINE1":"1 46758U 20074V   22330.63756033  .00000511  00000-0  53251-4 0  9993"},{"FILE":"3671048","LAUNCH_DATE":"2020-10-24","GP_ID":"218890737","COUNTRY_CODE":"US","CLASSIFICATION_TYPE":"U","MEAN_ANOMALY":"300.6159","PERIOD":"95.592","APOAPSIS":"548.413","MEAN_ELEMENT_THEORY":"SGP4","SITE":"AFETR","NORAD_CAT_ID":"46759","EPOCH":"2022-11-26T16:46:59.684160","TLE_LINE1":"1 46759U 20074W   22330.69930190  .00003229  00000-0  23557-3 0  9992","ARG_OF_PERICENTER":"59.5002","MEAN_MOTION_DOT":"0.00003229","REV_AT_EPOCH":"11574","OBJECT_NAME":"STARLINK-1833","ECCENTRICITY":"0.00017430","ELEMENT_SET_NO":"999","TLE_LINE2":"2 46759  53.0553 319.1120 0001743  59.5002 300.6159 15.06402411115743","PERIAPSIS":"545.999","REF_FRAME":"TEME","MEAN_MOTION_DDOT":"0.0000000000000","INCLINATION":"53.0553","CENTER_NAME":"EARTH","OBJECT_ID":"2020-074W","RCS_SIZE":"LARGE","RA_OF_ASC_NODE":"319.1120","EPHEMERIS_TYPE":"0","BSTAR":"0.00023557000000","SEMIMAJOR_AXIS":"6925.341","OBJECT_TYPE":"PAYLOAD","DECAY_DATE":null,"TIME_SYSTEM":"UTC","MEAN_MOTION":"15.06402411"},{"EPOCH":"2022-11-26T17:02:54.333312","TLE_LINE1":"1 46760U 20074X   22330.71035108  .00002417  00000-0  18110-3 0  9999","ARG_OF_PERICENTER":"55.2480","MEAN_MOTION_DOT":"0.00002417","REV_AT_EPOCH":"11575","OBJECT_NAME":"STARLINK-1896","ELEMENT_SET_NO":"999","ECCENTRICITY":"0.00018230","TLE_LINE2":"2 46760  53.0563 319.0614 0001823  55.2480 304.8680 15.06406320115754","PERIAPSIS":"545.932","REF_FRAME":"TEME","MEAN_MOTION_DDOT":"0.0000000000000","LAUNCH_DATE":"2020-10-24","FILE":"3671048","GP_ID":"218890488","COUNTRY_CODE":"US","CLASSIFICATION_TYPE":"U","MEAN_ANOMALY":"304.8680","APOAPSIS":"548.457","MEAN_ELEMENT_THEORY":"SGP4","PERIOD":"95.592","SITE":"AFETR","NORAD_CAT_ID":"46760","SEMIMAJOR_AXIS":"6925.329","OBJECT_TYPE":"PAYLOAD","DECAY_DATE":null,"TIME_SYSTEM":"UTC","MEAN_MOTION":"15.06406320","INCLINATION":"53.0563","CENTER_NAME":"EARTH","OBJECT_ID":"2020-074X","RCS_SIZE":"LARGE","RA_OF_ASC_NODE":"319.0614","EPHEMERIS_TYPE":"0","BSTAR":"0.00018110000000"},{"OBJECT_TYPE":"PAYLOAD","SEMIMAJOR_AXIS":"6717.711","MEAN_MOTION":"15.76778885","TIME_SYSTEM":"UTC","DECAY_DATE":null,"RA_OF_ASC_NODE":"221.7120","RCS_SIZE":"LARGE","BSTAR":"0.00005895100000","EPHEMERIS_TYPE":"0","INCLINATION":"53.0428","OBJECT_ID":"2020-074AA","CENTER_NAME":"EARTH","OBJECT_NAME":"STARLINK-1902","REV_AT_EPOCH":"11713","MEAN_MOTION_DOT":"0.00009026","ARG_OF_PERICENTER":"60.4998","PERIAPSIS":"338.895","MEAN_MOTION_DDOT":"0.0000000000000","REF_FRAME":"TEME","TLE_LINE2":"2 46763  53.0428 221.7120 0001014  60.4998 299.6122 15.76778885117133","ELEMENT_SET_NO":"999","ECCENTRICITY":"0.00010140","EPOCH":"2022-11-26T19:33:05.372928","TLE_LINE1":"1 46763U 20074AA  22330.81464552  .00009026  00000-0  58951-4 0  9993","NORAD_CAT_ID":"46763","SITE":"AFETR","CLASSIFICATION_TYPE":"U","GP_ID":"218889237","COUNTRY_CODE":"US","FILE":"3671048","LAUNCH_DATE":"2020-10-24","PERIOD":"91.325","APOAPSIS":"340.257","MEAN_ELEMENT_THEORY":"SGP4","MEAN_ANOMALY":"299.6122"},{"ELEMENT_SET_NO":"999","ECCENTRICITY":"0.00020810","TLE_LINE2":"2 46764  53.0549 319.0902 0002081  49.3350 310.7820 15.06420074115753","REF_FRAME":"TEME","PERIAPSIS":"545.711","MEAN_MOTION_DDOT":"0.0000000000000","ARG_OF_PERICENTER":"49.3350","MEAN_MOTION_DOT":"0.00011998","REV_AT_EPOCH":"11575","OBJECT_NAME":"STARLINK-1903","TLE_LINE1":"1 46764U 20074AB  22330.70298353  .00011998  00000-0  82252-3 0  9997","EPOCH":"2022-11-26T16:52:17.776992","SITE":"AFETR","NORAD_CAT_ID":"46764","MEAN_ANOMALY":"310.7820","APOAPSIS":"548.593","PERIOD":"95.591","MEAN_ELEMENT_THEORY":"SGP4","FILE":"3671048","LAUNCH_DATE":"2020-10-24","COUNTRY_CODE":"US","GP_ID":"218889987","CLASSIFICATION_TYPE":"U","DECAY_DATE":null,"TIME_SYSTEM":"UTC","MEAN_MOTION":"15.06420074","SEMIMAJOR_AXIS":"6925.287","OBJECT_TYPE":"PAYLOAD","EPHEMERIS_TYPE":"0","BSTAR":"0.00082252000000","RCS_SIZE":"LARGE","RA_OF_ASC_NODE":"319.0902","CENTER_NAME":"EARTH","OBJECT_ID":"2020-074AB","INCLINATION":"53.0549"},{"EPOCH":"2022-11-26T16:36:22.585248","TLE_LINE1":"1 46765U 20074AC  22330.69192807  .00002916  00000-0  21458-3 0  9994","REV_AT_EPOCH":"11574","OBJECT_NAME":"STARLINK-1906","ARG_OF_PERICENTER":"62.7814","MEAN_MOTION_DOT":"0.00002916","PERIAPSIS":"545.962","REF_FRAME":"TEME","MEAN_MOTION_DDOT":"0.0000000000000","ELEMENT_SET_NO":"999","ECCENTRICITY":"0.00017950","TLE_LINE2":"2 46765  53.0549 319.1163 0001795  62.7814 297.3357 15.06402854115749","COUNTRY_CODE":"US","GP_ID":"218890239","CLASSIFICATION_TYPE":"U","LAUNCH_DATE":"2020-10-24","FILE":"3671048","PERIOD":"95.592","APOAPSIS":"548.448","MEAN_ELEMENT_THEORY":"SGP4","MEAN_ANOMALY":"297.3357","SITE":"AFETR","NORAD_CAT_ID":"46765","OBJECT_TYPE":"PAYLOAD","SEMIMAJOR_AXIS":"6925.340","TIME_SYSTEM":"UTC","MEAN_MOTION":"15.06402854","DECAY_DATE":null,"INCLINATION":"53.0549","OBJECT_ID":"2020-074AC","CENTER_NAME":"EARTH","RCS_SIZE":"LARGE","RA_OF_ASC_NODE":"319.1163","EPHEMERIS_TYPE":"0","BSTAR":"0.00021458000000"},{"MEAN_MOTION":"15.06403460","TIME_SYSTEM":"UTC","DECAY_DATE":null,"OBJECT_TYPE":"PAYLOAD","SEMIMAJOR_AXIS":"6925.338","OBJECT_ID":"2020-074AD","CENTER_NAME":"EARTH","INCLINATION":"53.0549","BSTAR":"0.00006390200000","EPHEMERIS_TYPE":"0","RA_OF_ASC_NODE":"319.1771","RCS_SIZE":"LARGE","TLE_LINE1":"1 46766U 20074AD  22330.68455557  .00000670  00000-0  63902-4 0  9994","EPOCH":"2022-11-26T16:25:45.601248","MEAN_MOTION_DDOT":"0.0000000000000","PERIAPSIS":"545.843","REF_FRAME":"TEME","TLE_LINE2":"2 46766  53.0549 319.1771 0001964  52.2555 307.8611 15.06403460115754","ECCENTRICITY":"0.00019640","ELEMENT_SET_NO":"999","OBJECT_NAME":"STARLINK-1916","REV_AT_EPOCH":"11575","MEAN_MOTION_DOT":"0.00000670","ARG_OF_PERICENTER":"52.2555","PERIOD":"95.592","APOAPSIS":"548.563","MEAN_ELEMENT_THEORY":"SGP4","MEAN_ANOMALY":"307.8611","CLASSIFICATION_TYPE":"U","COUNTRY_CODE":"US","GP_ID":"218890986","LAUNCH_DATE":"2020-10-24","FILE":"3671048","NORAD_CAT_ID":"46766","SITE":"AFETR"},{"DECAY_DATE":null,"MEAN_MOTION":"15.06388370","TIME_SYSTEM":"UTC","SEMIMAJOR_AXIS":"6925.384","OBJECT_TYPE":"PAYLOAD","CENTER_NAME":"EARTH","OBJECT_ID":"2020-074AE","INCLINATION":"53.0540","BSTAR":"0.00033852000000","EPHEMERIS_TYPE":"0","RA_OF_ASC_NODE":"320.2233","RCS_SIZE":"LARGE","TLE_LINE1":"1 46767U 20074AE  22330.44865521  .00004763  00000-0  33852-3 0  9992","EPOCH":"2022-11-26T10:46:03.810144","TLE_LINE2":"2 46767  53.0540 320.2233 0002052  57.3630 302.7557 15.06388370115723","ELEMENT_SET_NO":"999","ECCENTRICITY":"0.00020520","PERIAPSIS":"545.828","REF_FRAME":"TEME","MEAN_MOTION_DDOT":"0.0000000000000","MEAN_MOTION_DOT":"0.00004763","ARG_OF_PERICENTER":"57.3630","OBJECT_NAME":"STARLINK-1917","REV_AT_EPOCH":"11572","MEAN_ANOMALY":"302.7557","APOAPSIS":"548.670","PERIOD":"95.593","MEAN_ELEMENT_THEORY":"SGP4","LAUNCH_DATE":"2020-10-24","FILE":"3670911","CLASSIFICATION_TYPE":"U","COUNTRY_CODE":"US","GP_ID":"218867431","NORAD_CAT_ID":"46767","SITE":"AFETR"},{"MEAN_MOTION_DDOT":"0.0000000000000","PERIAPSIS":"545.631","REF_FRAME":"TEME","ELEMENT_SET_NO":"999","ECCENTRICITY":"0.00022810","TLE_LINE2":"2 46768  53.0556 321.0976 0002281  48.8627 311.2559 15.06400952115682","REV_AT_EPOCH":"11568","OBJECT_NAME":"STARLINK-1918","ARG_OF_PERICENTER":"48.8627","MEAN_MOTION_DOT":"0.00001596","TLE_LINE1":"1 46768U 20074AF  22330.25329745  .00001596  00000-0  12603-3 0  9997","EPOCH":"2022-11-26T06:04:44.899680","SITE":"AFETR","NORAD_CAT_ID":"46768","MEAN_ELEMENT_THEORY":"SGP4","APOAPSIS":"548.790","PERIOD":"95.592","MEAN_ANOMALY":"311.2559","GP_ID":"218857471","COUNTRY_CODE":"US","CLASSIFICATION_TYPE":"U","LAUNCH_DATE":"2020-10-24","FILE":"3670770","TIME_SYSTEM":"UTC","MEAN_MOTION":"15.06400952","DECAY_DATE":null,"OBJECT_TYPE":"PAYLOAD","SEMIMAJOR_AXIS":"6925.346","EPHEMERIS_TYPE":"0","BSTAR":"0.00012603000000","RCS_SIZE":"LARGE","RA_OF_ASC_NODE":"321.0976","OBJECT_ID":"2020-074AF","CENTER_NAME":"EARTH","INCLINATION":"53.0556"},{"OBJECT_TYPE":"PAYLOAD","SEMIMAJOR_AXIS":"6925.311","TIME_SYSTEM":"UTC","MEAN_MOTION":"15.06412094","DECAY_DATE":null,"INCLINATION":"53.0544","OBJECT_ID":"2020-074AH","CENTER_NAME":"EARTH","RCS_SIZE":"LARGE","RA_OF_ASC_NODE":"320.7352","EPHEMERIS_TYPE":"0","BSTAR":"0.00029696000000","EPOCH":"2022-11-26T11:02:04.869312","TLE_LINE1":"1 46770U 20074AH  22330.45977858  .00004146  00000-0  29696-3 0  9990","REV_AT_EPOCH":"11570","OBJECT_NAME":"STARLINK-1932","ARG_OF_PERICENTER":"52.7737","MEAN_MOTION_DOT":"0.00004146","PERIAPSIS":"545.730","REF_FRAME":"TEME","MEAN_MOTION_DDOT":"0.0000000000000","ELEMENT_SET_NO":"999","ECCENTRICITY":"0.00020880","TLE_LINE2":"2 46770  53.0544 320.7352 0002088  52.7737 307.3442 15.06412094115707","GP_ID":"218858720","COUNTRY_CODE":"US","CLASSIFICATION_TYPE":"U","FILE":"3670770","LAUNCH_DATE":"2020-10-24","APOAPSIS":"548.622","MEAN_ELEMENT_THEORY":"SGP4","PERIOD":"95.591","MEAN_ANOMALY":"307.3442","SITE":"AFETR","NORAD_CAT_ID":"46770"}];
